[Satellite]
VERSION=1.1
NAME=METEOR-M 1
NICKNAME=METEOR-M 1
TLE1=1 35865U 09049A   17186.18953672 -.00000004  00000-0  16712-4 0  9999
TLE2=2 35865  98.4209 207.0818 0003663  94.6045 265.5552 14.22113425404668
